1 42214U 81053UE  18209.44130393 +.00000299 +00000-0 +28533-3 0  9991
2 42214 083.0203 096.1708 0090322 306.2273 053.0559 13.75851410558775
1 42331U 95015JZ  18212.97131253 +.00001080 +00000-0 +50510-3 0  9991
2 42331 098.7691 221.0926 0009388 351.0284 009.0725 14.22389333140598
1 42166U 81053SE  18213.52956659 -.00000109  00000-0 -10229-3 0  9997
2 42166  82.8940 286.0393 0158898 119.0207 242.6982 13.84592225236726
1 42281U 95015GX  18212.85456883 +.00000763 +00000-0 +32393-3 0  9997
2 42281 098.7264 229.6841 0043327 307.4446 052.2796 14.27757806170583
1 42169U 81053SH  18212.68370080  .00000615  00000-0  21603-3 0  9992
2 42169  82.8799 350.0655 0024640 197.9682 162.0638 14.33431030244838
1 42315U 95015JH  18212.50915222  .00000569  00000-0  25986-3 0  9998
2 42315  98.7696 231.3867 0034201  17.3837 342.8505 14.25124147155774
1 42201U 81053TR  18212.77181715 +.00000638 +00000-0 +32383-3 0  9996
2 42201 082.7084 019.2257 0046591 285.1119 074.4907 14.14105031242377
1 42265U 95015GF  18212.96305691 +.00000398 +00000-0 +21208-3 0  9998
2 42265 098.7872 217.3102 0007749 062.0587 298.1373 14.18938814138937
1 42230U 81053UW  18212.44932289 +.00000392 +00000-0 +23877-3 0  9997
2 42230 082.7515 113.3566 0055243 089.8197 270.9305 14.03039318222270
1 42182U 81053SW  18213.35498905  .00000252  00000-0  29816-3 0  9990
2 42182  82.9527 235.8792 0138296 163.8372 257.1976 13.59846916702993
1 42185U 81053SZ  18173.57700411  .00000211  00000-0  19329-3 0  9993
2 42185  83.0531 267.9732 0121432  46.9689  12.6828 13.75140380229959
1 42328U 95015JW  18213.15842975  .00001533  00000-0  83984-3 0  9992
2 42328  98.7653 197.3361 0039807 219.1801 140.6488 14.12947499143186
1 42301U 95015HT  18212.58095904  .00001891  00000-0  55901-3 0  9996
2 42301  98.7296 255.4998 0076928 232.3564 127.0628 14.42995250160039
1 42304U 95015HW  18212.49902614  .00001634  00000-0  67786-3 0  9993
2 42304  98.7491 228.3967 0019302 347.7672  12.3037 14.27815814158484
1 42217U 81053UH  18213.49854260  .00000463  00000-0  52398-3 0  9999
2 42217  83.0343 284.9818 0126180 256.4982 163.2528 13.65271608808409
1 42284U 95015HA  18212.96117543  .00001907  00000-0  58879-3 0  9997
2 42284  98.8388 267.1878 0057582 269.9812  89.4778 14.41637252162332
1 42172U 81053SL  18213.16040079  .00000351  00000-0  22087-3 0  9996
2 42172  82.9583  19.5611 0062768 151.0290 209.4389 14.00704863695573
1 42253U 93016DH  18212.29124394  .00001316  00000-0  55399-3 0  9998
2 42253  70.9550 185.4845 0116135 198.9738 160.7046 14.24013593823145
1 42318U 95015JL  18213.15589994  .00000906  00000-0  93419-3 0  9997
2 42318  98.7245 105.9927 0238045 140.0047 221.8904 13.66561175149322
1 42257U 95015FX  18213.09673822  .00000883  00000-0  30668-3 0  9997
2 42257  98.7951 261.7199 0067738 279.8844  79.4699 14.36838220144043
1 42204U 81053TU  18213.05835917  .00000137  00000-0  14068-3 0  9995
2 42204  83.0680 315.3060 0134162 134.5675 349.7774 13.65101317772123
1 42347U 00055QP  18213.18985640  .00000764  00000-0  36389-3 0  9995
2 42347  98.8783 301.3860 0055273 213.7270 146.0385 14.21526928131327
1 42268U 95015GJ  18212.08398443 +.00000813 +00000-0 +64861-3 0  9995
2 42268 098.7709 152.5638 0147470 011.6459 348.8051 13.88774684166135
1 42233U 81053UZ  18210.10903803 +.00000526 +00000-0 +60183-3 0  9991
2 42233 083.0420 264.6991 0138403 145.4836 215.5399 13.63908169413288
1 42350U 00055QS  18213.00396571 -.00000017  00000-0  15674-4 0  9996
2 42350  98.8032 272.5688 0028043  79.6739 280.7588 14.05938078 91566
1 42188U 81053TC  18210.84697443 +.00000563 +00000-0 +34679-3 0  9993
2 42188 082.8562 246.2804 0050338 304.6328 055.0103 14.03361139239590
1 42243U 93016CX  18195.98609143  .00001198  00000-0  59614-3 0  9995
2 42243  70.9617  72.0390 0139729 359.1195   0.9658 14.14079805707261
1 42191U 81053TF  18213.04255709  .00000405  00000-0  26383-3 0  9995
2 42191  82.8241 237.5426 0043122  77.0319 283.5661 13.99675396818907
1 42334U 00055QA  18213.01987741  .00000494  00000-0  27128-3 0  9998
2 42334  98.8727 292.6530 0018485 206.6484 153.3741 14.16249970102800
1 42307U 95015HZ  18211.55701621  .00008739  00000-0  76216-3 0  9998
2 42307  98.7322 332.7737 0075866  10.2873 349.9876 14.94918584170360
1 42220U 81053UL  18212.49513969  .00000666  00000-0  27527-3 0  9991
2 42220  82.9213 132.8859 0031938 117.1121 243.3327 14.25137078243451
1 42337U 00055QD  18212.45696264 +.00000815 +00000-0 +35406-3 0  9990
2 42337 098.7724 295.6008 0071702 194.0123 165.9068 14.25540565128862
1 42287U 95015HD  18211.47411449  .00004021  00000-0  15710-2 0  9993
2 42287  98.7527 225.9957 0007191 341.3917  18.7001 14.30133562167502
1 42175U 81053SP  18185.97294278 +.00000064 +00000-0 +71866-4 0  9999
2 42175 083.0311 059.1275 0142276 074.3130 349.3923 13.49021443227663
1 42321U 95015JP  18212.88354906  .00001455  00000-0  55965-3 0  9997
2 42321  98.7212 234.3488 0040456 290.7685  68.9166 14.31495457172606
1 42207U 81053TX  18210.84906159 +.00000577 +00000-0 +73804-3 0  9990
2 42207 083.0557 257.3735 0211135 259.4260 098.3040 13.52799631793344
1 42236U 93016CQ  18213.18795160  .00001030  00000-0  52773-3 0  9999
2 42236  70.9748  39.5849 0144069 334.7720  24.6410 14.12569044711352
1 42246U 93016DA  18212.86208229  .00001255  00000-0  58309-3 0  9999
2 42246  70.9551 295.5126 0130173 271.4348  87.1867 14.18184281244691
1 42194U 81053TJ  18212.89915836 +.00000626 +00000-0 +65962-3 0  9995
2 42194 082.8358 066.3701 0191140 175.0015 185.3106 13.65611468233591
1 42310U 95015JC  18213.01273436  .00001508  00000-0  59255-3 0  9994
2 42310  98.7289 232.7533 0035990 298.6159  61.1405 14.30464930158012
1 42223U 81053UP  18212.76997474 +.00000571 +00000-0 +27517-3 0  9995
2 42223 082.8705 133.6516 0049343 140.7140 219.7636 14.16485532194030
1 42340U 00055QG  18213.47744618  .00000581  00000-0  37511-3 0  9993
2 42340  99.0442 292.6959 0053199 135.7165 224.8278 14.06235720124583
1 42290U 95015HG  18212.07950096  .00004508  00000-0  75867-3 0  9990
2 42290  98.8018 300.1140 0096298 120.2359 240.8420 14.67082766171611
1 42178U 81053SS  18212.26264218  .00000474  00000-0  23925-3 0  9993
2 42178  82.9441 197.8130 0010209 350.4077   9.6904 14.14380621222890
1 42271U 95015GM  18212.21665251  .00000863  00000-0  41847-3 0  9992
2 42271  98.7779 217.9199 0007936  73.1362 287.0684 14.20997544159410
1 42353U 00055QV  18213.46376541  .00001146  00000-0  47877-3 0  9996
2 42353  98.8059 300.8715 0060461 152.7996 207.6373 14.27119602130115
1 42158U 81053RW  18212.55937766 +.00000361 +00000-0 +35079-3 0  9996
2 42158 083.0100 141.7490 0105205 198.7113 283.7166 13.74641368235335
1 42274U 95015GQ  18212.49735402 +.00001347 +00000-0 +57584-3 0  9994
2 42274 098.7517 227.2291 0019893 343.1224 016.9292 14.26564312171183
1 42161U 81053RZ  18158.34389155  .00000419  00000-0  32014-3 0  9999
2 42161  82.9288 168.4497 0058889 163.2594 255.5691 13.90357598732353
1 42277U 95015GT  18213.33325366  .00002249  00000-0  71268-3 0  9992
2 42277  98.7275 250.5559 0050691 271.6485  87.8896 14.40359166161998
1 42165U 81053SD  18189.42091527  .00000385  00000-0  21026-3 0  9992
2 42165  82.7475  73.7501 0050593 327.9656 156.0259 14.09181718724849
1 42249U 93016DD  17355.36935293  .00002140  00000-0  84592-3 0  9999
2 42249  70.9725 249.4701 0111174 134.9050 226.1170 14.26764791638189
1 42197U 81053TM  18212.12434754 +.00000338 +00000-0 +37111-3 0  9994
2 42197 082.8514 354.7028 0120623 253.1161 105.6735 13.66667248233706
1 42261U 95015GB  18212.88336775  .00000085  00000-0  44195-4 0  9996
2 42261  98.6780 245.3797 0089135 275.2960  83.8059 14.34893740153015
1 42226U 81053US  18213.23841556  .00000180  00000-0  19413-3 0  9992
2 42226  82.9584 142.1137 0116921 178.2356 181.9232 13.65041633234495
1 42343U 00055QK  18211.18748272  .00001767  00000-0  88665-3 0  9995
2 42343  99.0341 298.3553 0050953  84.0993 276.5985 14.17220523116742
1 42181U 81053SV  18209.71245053 -.00000159 +00000-0 -14520-3 0  9992
2 42181 082.9035 111.4709 0070597 060.7098 330.3666 13.87802436678804
1 42324U 95015JS  18213.49561948  .00001467  00000-0  66685-3 0  9998
2 42324  98.7876 225.8033 0010216 327.3173  32.7372 14.23313927145673
1 42297U 95015HP  18212.75063055 +.00000755 +00000-0 +46094-3 0  9992
2 42297 098.7883 191.6181 0045994 266.5583 093.0325 14.08470671147936
1 42210U 81053UA  18212.30386755 +.00000235 +00000-0 +25099-3 0  9995
2 42210 083.0105 200.6423 0113404 042.0656 017.2196 13.67172993233755
1 42327U 95015JV  18213.44492283  .00000547  00000-0  28154-3 0  9998
2 42327  98.7794 217.7384 0008842  54.7200 305.4802 14.19338576143845
1 42239U 93016CT  18212.19857823  .00000894  00000-0  49483-3 0  9998
2 42239  71.1377 147.7070 0135082  27.6132 333.2077 14.09414354526085
1 42330U 95015JY  18212.24466153 +.00001295 +00000-0 +57239-3 0  9993
2 42330 098.7549 223.6944 0014990 351.6289 008.4638 14.24925575147110
1 42314U 95015JG  18212.28331012  .00005401  00000-0  53571-3 0  9992
2 42314  98.7466 334.0277 0102156  20.0837 340.4351 14.88410516162217
1 42252U 93016DG  18212.67791050  .00000891  00000-0  51461-3 0  9991
2 42252  70.9834 208.3762 0162702  82.0085 279.9459 14.05208807795345
1 42200U 81053TQ  18212.23800876 +.00000493 +00000-0 +33534-3 0  9990
2 42200 082.9800 185.6122 0070905 272.0300 087.2749 13.97082915238754
1 42264U 95015GE  18212.50435579 +.00002774 +00000-0 +40900-3 0  9996
2 42264 098.7123 308.6635 0135529 092.6827 268.9899 14.70159934176402
1 42256U 93016DL  15053.40661193 +.00011073 +00000-0 +52194-2 0  9997
2 42256 070.9554 335.3796 0129353 304.8790 063.7745 14.15690330339448
1 42229U 81053UV  18209.32547170  .00000147  00000-0  19607-3 0  9993
2 42229  83.0251 220.3045 0226730   1.1083 357.7291 13.44331100744143
1 42293U 95015HK  18213.25854543  .00000978  00000-0  43902-3 0  9996
2 42293  98.7929 231.8284 0017785 356.1631   3.9409 14.24663168148309
1 42184U 81053SY  18211.46276042  .00000062  00000-0  60044-4 0  9996
2 42184  83.0206 209.0785 0097448  46.8104 110.3424 13.61208517337626
